NORAD_CAT_ID,OBJECT_NAME,OBJECT_TYPE,EPOCH,MEAN_MOTION,ECCENTRICITY,INCLINATION,RA_OF_ASC_NODE,ARG_OF_PERICENTER,MEAN_ANOMALY,BSTAR,MEAN_MOTION_DOT,MEAN_MOTION_DDOT,TLE_LINE0,TLE_LINE1,TLE_LINE2,SEMIMAJOR_AXIS,PERIOD,APOGEE,PERIGEE,DECAYED
53619.0,STARLINK-4609,PAYLOAD,2023-11-12 16:11:41,15.08841422,0.0001537,53.2173,81.0022,79.9866,280.13,0.0001187,1.602e-05,0.0,0 STARLINK-4609,1 53619U 22104AH  23316.67479083  .00001602  00000-0  11870-3 0  9991,2 53619  53.2173  81.0022 0001537  79.9866 280.1300 15.08841422 67047,6917.876,95.437,540.804,538.678,0.0
53619.0,STARLINK-4609,PAYLOAD,2023-11-13 14:27:05,15.08855747,0.0001422,53.217,76.8385,83.3798,276.7356,0.00025713,3.808e-05,0.0,0 STARLINK-4609,1 53619U 22104AH  23317.60214152  .00003808  00000-0  25713-3 0  9990,2 53619  53.2170  76.8385 0001422  83.3798 276.7356 15.08855747 67186,6917.832,95.437,540.681,538.714,0.0
53619.0,STARLINK-4609,PAYLOAD,2023-11-14 01:34:47,15.08849191,0.0001345,53.2172,74.7569,93.9405,266.1741,0.00014328,1.994e-05,0.0,0 STARLINK-4609,1 53619U 22104AH  23318.06582227  .00001994  00000-0  14328-3 0  9996,2 53619  53.2172  74.7569 0001345  93.9405 266.1741 15.08849191 67250,6917.852,95.437,540.648,538.787,0.0
53619.0,STARLINK-4609,PAYLOAD,2023-11-14 11:07:07,15.08824304,0.0001349,53.2177,72.9733,92.965,267.1496,-0.00011541,-2.123e-05,0.0,0 STARLINK-4609,1 53619U 22104AH  23318.46327725 -.00002123  00000-0 -11541-3 0  9991,2 53619  53.2177  72.9733 0001349  92.9650 267.1496 15.08824304 67317,6917.928,95.439,540.727,538.86,0.0
53619.0,STARLINK-4609,PAYLOAD,2023-11-14 14:17:53,15.08822629,0.0001319,53.2176,72.3786,89.9933,270.1211,-0.000127,-2.308e-05,0.0,0 STARLINK-4609,1 53619U 22104AH  23318.59575958 -.00002308  00000-0 -12700-3 0  9991,2 53619  53.2176  72.3786 0001319  89.9933 270.1211 15.08822629 67907,6917.933,95.439,540.711,538.886,0.0
53619.0,STARLINK-4609,PAYLOAD,2023-11-14 17:28:40,15.08823477,0.0001521,53.2188,71.7816,99.8434,260.273,2.7369e-05,1.47e-06,0.0,0 STARLINK-4609,1 53619U 22104AH  23318.72824097  .00000147  00000-0  27369-4 0  9992,2 53619  53.2188  71.7816 0001521  99.8434 260.2730 15.08823477 67928,6917.931,95.439,540.848,538.744,0.0
53619.0,STARLINK-4609,PAYLOAD,2023-11-15 10:57:53,15.08844242,0.0001349,53.2179,68.5125,102.9714,257.1429,0.00017358,2.476e-05,0.0,0 STARLINK-4609,1 53619U 22104AH  23319.45687014  .00002476  00000-0  17358-3 0  9992,2 53619  53.2179  68.5125 0001349 102.9714 257.1429 15.08844242 67462,6917.867,95.437,540.666,538.799,0.0
53619.0,STARLINK-4609,PAYLOAD,2023-11-15 12:33:16,15.08846402,0.0001363,53.2183,68.2158,97.76,262.3547,0.00020218,2.932e-05,0.0,0 STARLINK-4609,1 53619U 22104AH  23319.52310955  .00002932  00000-0  20218-3 0  9993,2 53619  53.2183  68.2158 0001363  97.7600 262.3547 15.08846402 68045,6917.861,95.437,540.669,538.783,0.0
53619.0,STARLINK-4609,PAYLOAD,2023-11-16 23:31:46,15.08839407,0.0001319,53.218,61.6741,88.3359,271.7784,0.00021592,3.15e-05,0.0,0 STARLINK-4609,1 53619U 22104AH  23320.98039416  .00003150  00000-0  21592-3 0  9994,2 53619  53.2180  61.6741 0001319  88.3359 271.7784 15.08839407 67699,6917.882,95.438,540.66,538.835,0.0
53619.0,STARLINK-4609,PAYLOAD,2023-11-17 13:50:14,15.08847286,0.0001922,53.2204,59.0002,107.4932,252.6271,-0.0001074,-1.997e-05,0.0,0 STARLINK-4609,1 53619U 22104AH  23321.57655451 -.00001997  00000-0 -10740-3 0  9995,2 53619  53.2204  59.0002 0001922 107.4932 252.6271 15.08847286 68354,6917.858,95.437,541.053,538.394,0.0
53619.0,STARLINK-4609,PAYLOAD,2023-11-17 15:25:37,15.08847704,0.0001863,53.2207,58.7025,106.5114,253.6083,-0.00010257,-1.921e-05,0.0,0 STARLINK-4609,1 53619U 22104AH  23321.64279381 -.00001921  00000-0 -10257-3 0  9997,2 53619  53.2207  58.7025 0001863 106.5114 253.6083 15.08847704 68362,6917.857,95.437,541.011,538.433,0.0
53619.0,STARLINK-4609,PAYLOAD,2023-11-18 12:05:38,15.08833808,0.0001489,53.2196,54.8352,92.8384,267.2778,0.00011271,1.506e-05,0.0,0 STARLINK-4609,1 53619U 22104AH  23322.50391850  .00001506  00000-0  11271-3 0  9993,2 53619  53.2196  54.8352 0001489  92.8384 267.2778 15.08833808 67922,6917.899,95.438,540.794,538.734,0.0
53619.0,STARLINK-4609,PAYLOAD,2023-11-18 15:16:24,15.08835817,0.0001507,53.2198,54.2407,93.7731,266.3434,0.00012278,1.666e-05,0.0,0 STARLINK-4609,1 53619U 22104AH  23322.63639754  .00001666  00000-0  12278-3 0  9990,2 53619  53.2198  54.2407 0001507  93.7731 266.3434 15.08835817 68513,6917.893,95.438,540.801,538.716,0.0
53619.0,STARLINK-4609,PAYLOAD,2023-11-19 13:31:48,15.08844705,0.000148,53.2197,50.0773,87.304,272.8121,0.00013701,1.893e-05,0.0,0 STARLINK-4609,1 53619U 22104AH  23323.56375432  .00001893  00000-0  13701-3 0  9997,2 53619  53.2197  50.0773 0001480  87.3040 272.8121 15.08844705 68650,6917.866,95.437,540.755,538.707,0.0
53619.0,STARLINK-4609,PAYLOAD,2023-11-20 13:22:35,15.0884366,0.0001459,53.2195,45.6169,87.9757,272.1402,0.00010608,1.401e-05,0.0,0 STARLINK-4609,1 53619U 22104AH  23324.55735533  .00001401  00000-0  10608-3 0  9997,2 53619  53.2195  45.6169 0001459  87.9757 272.1402 15.08843660 68805,6917.869,95.437,540.744,538.725,0.0
53619.0,STARLINK-4609,PAYLOAD,2023-11-21 11:37:59,15.08843593,0.0001481,53.2194,41.4546,86.0681,274.048,5.6993e-05,6.19e-06,0.0,0 STARLINK-4609,1 53619U 22104AH  23325.48471540  .00000619  00000-0  56993-4 0  9993,2 53619  53.2194  41.4546 0001481  86.0681 274.0480 15.08843593 68945,6917.869,95.437,540.759,538.71,0.0
53619.0,STARLINK-4609,PAYLOAD,2023-11-22 11:28:45,15.08850175,0.0001524,53.2179,36.9932,85.2253,274.8913,0.00030788,4.617e-05,0.0,0 STARLINK-4609,1 53619U 22104AH  23326.47830990  .00004617  00000-0  30788-3 0  9996,2 53619  53.2179  36.9932 0001524  85.2253 274.8913 15.08850175 68527,6917.849,95.437,540.769,538.66,0.0
53619.0,STARLINK-4609,PAYLOAD,2023-11-23 11:19:33,15.08838225,0.0001792,53.2191,32.5314,114.4745,245.6434,-2.6943e-05,-7.17e-06,0.0,0 STARLINK-4609,1 53619U 22104AH  23327.47191442 -.00000717  00000-0 -26943-4 0  9997,2 53619  53.2191  32.5314 0001792 114.4745 245.6434 15.08838225 68677,6917.886,95.438,540.99,538.511,0.0
53619.0,STARLINK-4609,PAYLOAD,2023-11-23 14:30:19,15.0884046,0.0001486,53.2182,31.9365,95.0089,265.1073,1.5245e-05,-4.5e-07,0.0,0 STARLINK-4609,1 53619U 22104AH  23327.60439438 -.00000045  00000-0  15245-4 0  9998,2 53619  53.2182  31.9365 0001486  95.0089 265.1073 15.08840460 69267,6917.879,95.438,540.772,538.716,0.0
53619.0,STARLINK-4609,PAYLOAD,2023-11-24 03:13:25,15.08826321,0.0001701,53.2187,29.5539,107.3639,252.7539,-0.00026002,-4.422e-05,0.0,0 STARLINK-4609,1 53619U 22104AH  23328.13432492 -.00004422  00000-0 -26002-3 0  9996,2 53619  53.2187  29.5539 0001701 107.3639 252.7539 15.08826321 68770,6917.922,95.438,540.964,538.61,0.0
53619.0,STARLINK-4609,PAYLOAD,2023-11-24 11:10:21,15.08837716,0.0001548,53.219,28.0729,99.197,260.9197,-0.00011054,-2.047e-05,0.0,0 STARLINK-4609,1 53619U 22104AH  23328.46552458 -.00002047  00000-0 -11054-3 0  9999,2 53619  53.2190  28.0729 0001548  99.1970 260.9197 15.08837716 68821,6917.887,95.438,540.823,538.681,0.0
53619.0,STARLINK-4609,PAYLOAD,2023-11-25 09:25:44,15.08844418,0.0001515,53.2187,23.9095,99.2167,260.8996,0.00020154,2.921e-05,0.0,0 STARLINK-4609,1 53619U 22104AH  23329.39287942  .00002921  00000-0  20154-3 0  9995,2 53619  53.2187  23.9095 0001515  99.2167 260.8996 15.08844418 69532,6917.867,95.437,540.78,538.684,0.0
53619.0,STARLINK-4609,PAYLOAD,2023-11-26 12:27:17,15.08861495,0.0002288,53.2188,18.8551,125.3357,234.7849,0.00033329,5.023e-05,0.0,0 STARLINK-4609,1 53619U 22104AH  23330.51894846  .00005023  00000-0  33329-3 0  9992,2 53619  53.2188  18.8551 0002288 125.3357 234.7849 15.08861495 69703,6917.815,95.436,541.262,538.097,0.0
53619.0,STARLINK-4609,PAYLOAD,2023-11-27 02:45:46,15.08834926,0.0001922,53.2186,16.1787,102.6553,257.4654,-0.00022553,-3.875e-05,0.0,0 STARLINK-4609,1 53619U 22104AH  23331.11512115 -.00003875  00000-0 -22553-3 0  9997,2 53619  53.2186  16.1787 0001922 102.6553 257.4654 15.08834926 69225,6917.896,95.438,541.091,538.431,0.0
53619.0,STARLINK-4609,PAYLOAD,2023-11-27 10:42:43,15.08809738,0.0001721,53.2182,14.6925,87.0396,273.0793,-0.00052622,-8.646e-05,0.0,0 STARLINK-4609,1 53619U 22104AH  23331.44633563 -.00008646  00000-0 -52622-3 0  9995,2 53619  53.2182  14.6925 0001721  87.0396 273.0793 15.08809738 69272,6917.973,95.439,541.028,538.647,0.0
53619.0,STARLINK-4609,PAYLOAD,2023-11-27 12:18:06,15.08814905,0.0001541,53.2176,14.3922,94.9149,265.2019,-0.00044738,-7.396e-05,0.0,0 STARLINK-4609,1 53619U 22104AH  23331.51257305 -.00007396  00000-0 -44738-3 0  9999,2 53619  53.2176  14.3922 0001541  94.9149 265.2019 15.08814905 69852,6917.957,95.439,540.888,538.756,0.0
53619.0,STARLINK-4609,PAYLOAD,2023-11-28 12:08:54,15.08826546,0.0001885,53.2185,9.9293,73.0445,287.0754,0.00053481,8.231e-05,0.0,0 STARLINK-4609,1 53619U 22104AH  23332.50618865  .00008231  00000-0  53481-3 0  9993,2 53619  53.2185   9.9293 0001885  73.0445 287.0754 15.08826546 69437,6917.922,95.438,541.091,538.482,0.0
53619.0,STARLINK-4609,PAYLOAD,2023-11-29 02:27:22,15.08860291,0.00016,53.217,7.2566,80.8346,279.2827,0.0011469,0.00018022,0.0,0 STARLINK-4609,1 53619U 22104AH  23333.10234411  .00018022  00000-0  11469-2 0  9999,2 53619  53.2170   7.2566 0001600  80.8346 279.2827 15.08860291 69525,6917.818,95.436,540.79,538.577,0.0
53619.0,STARLINK-4609,PAYLOAD,2023-11-29 08:48:54,15.0888899,0.0001861,53.2175,6.0686,77.8904,282.2297,0.001603,0.0002535,0.0,0 STARLINK-4609,1 53619U 22104AH  23333.36729561  .00025350  00000-0  16030-2 0  9993,2 53619  53.2175   6.0686 0001861  77.8904 282.2297 15.08888990 69560,6917.731,95.434,540.883,538.308,0.0
53619.0,STARLINK-4609,PAYLOAD,2023-11-30 07:04:17,15.08865593,0.0002023,53.2185,1.9086,120.0717,240.0476,0.0013236,0.00020855,0.0,0 STARLINK-4609,1 53619U 22104AH  23334.29464773  .00020855  00000-0  13236-2 0  9997,2 53619  53.2185   1.9086 0002023 120.0717 240.0476 15.08865593 69704,6917.802,95.436,541.067,538.268,0.0
